start=new Date('2022-07-14T00:00:00.000Z').valueOf();
sats=[{"REF_FRAME":"TEME","APOAPSIS":"548.081","GP_ID":"208065458","DECAY_DATE":null,"TLE_LINE1":"1 46583U 20070BD  22194.82083640 -.00002777  00000-0 -16761-3 0  9993","PERIOD":"95.592","CLASSIFICATION_TYPE":"U","ARG_OF_PERICENTER":"67.6485","TIME_SYSTEM":"UTC","SITE":"AFETR","OBJECT_NAME":"STARLINK-1729","LAUNCH_DATE":"2020-10-06","ELEMENT_SET_NO":"999","RA_OF_ASC_NODE":"49.0825","MEAN_MOTION":"15.06395230","MEAN_MOTION_DDOT":"0.0000000000000","INCLINATION":"53.0573","CENTER_NAME":"EARTH","RCS_SIZE":"LARGE","MEAN_ANOMALY":"292.4635","COUNTRY_CODE":"US","ECCENTRICITY":"0.00012310","PERIAPSIS":"546.376","FILE":"3513188","NORAD_CAT_ID":"46583","MEAN_MOTION_DOT":"-0.00002777","MEAN_ELEMENT_THEORY":"SGP4","TLE_LINE2":"2 46583  53.0573  49.0825 0001231  67.6485 292.4635 15.06395230 98307","OBJECT_ID":"2020-070BD","REV_AT_EPOCH":"9830","EPHEMERIS_TYPE":"0","BSTAR":"-0.00016761000000","EPOCH":"2022-07-13T19:42:00.264960","SEMIMAJOR_AXIS":"6925.363","OBJECT_TYPE":"PAYLOAD"},{"COUNTRY_CODE":"US","ECCENTRICITY":"0.00015180","PERIAPSIS":"546.138","MEAN_ANOMALY":"283.3300","BSTAR":"-0.00018015000000","EPOCH":"2022-07-13T20:11:11.852160","SEMIMAJOR_AXIS":"6925.325","OBJECT_TYPE":"PAYLOAD","NORAD_CAT_ID":"46584","FILE":"3513188","MEAN_MOTION_DOT":"-0.00002964","TLE_LINE2":"2 46584  53.0546  28.9933 0001518  76.7859 283.3300 15.06407798 98590","MEAN_ELEMENT_THEORY":"SGP4","EPHEMERIS_TYPE":"0","REV_AT_EPOCH":"9859","OBJECT_ID":"2020-070BE","MEAN_MOTION":"15.06407798","MEAN_MOTION_DDOT":"0.0000000000000","INCLINATION":"53.0546","RA_OF_ASC_NODE":"28.9933","CENTER_NAME":"EARTH","RCS_SIZE":"LARGE","PERIOD":"95.592","TLE_LINE1":"1 46584U 20070BE  22194.84110940 -.00002964  00000-0 -18015-3 0  9992","DECAY_DATE":null,"CLASSIFICATION_TYPE":"U","GP_ID":"208063957","OBJECT_NAME":"STARLINK-1732","ELEMENT_SET_NO":"999","LAUNCH_DATE":"2020-10-06","ARG_OF_PERICENTER":"76.7859","TIME_SYSTEM":"UTC","SITE":"AFETR","REF_FRAME":"TEME","APOAPSIS":"548.241"},{"TLE_LINE2":"2 46585  53.0564  29.1997 0001504  78.0761 282.0396 15.06401257 98580","MEAN_ELEMENT_THEORY":"SGP4","OBJECT_ID":"2020-070BF","REV_AT_EPOCH":"9858","EPHEMERIS_TYPE":"0","FILE":"3513188","MEAN_MOTION_DOT":"-0.00000579","NORAD_CAT_ID":"46585","OBJECT_TYPE":"PAYLOAD","BSTAR":"-0.00001997400000","SEMIMAJOR_AXIS":"6925.345","EPOCH":"2022-07-13T19:00:50.513184","MEAN_ANOMALY":"282.0396","COUNTRY_CODE":"US","ECCENTRICITY":"0.00015040","PERIAPSIS":"546.168","CENTER_NAME":"EARTH","RCS_SIZE":"LARGE","RA_OF_ASC_NODE":"29.1997","INCLINATION":"53.0564","MEAN_MOTION":"15.06401257","MEAN_MOTION_DDOT":"0.0000000000000","SITE":"AFETR","ARG_OF_PERICENTER":"78.0761","TIME_SYSTEM":"UTC","OBJECT_NAME":"STARLINK-1736","ELEMENT_SET_NO":"999","LAUNCH_DATE":"2020-10-06","GP_ID":"208065961","CLASSIFICATION_TYPE":"U","DECAY_DATE":null,"TLE_LINE1":"1 46585U 20070BF  22194.79225131 -.00000579  00000-0 -19974-4 0  9992","PERIOD":"95.592","APOAPSIS":"548.251","REF_FRAME":"TEME"},{"APOAPSIS":"548.150","REF_FRAME":"TEME","ARG_OF_PERICENTER":"85.5782","TIME_SYSTEM":"UTC","SITE":"AFETR","OBJECT_NAME":"STARLINK-1737","ELEMENT_SET_NO":"999","LAUNCH_DATE":"2020-10-06","GP_ID":"208064953","TLE_LINE1":"1 46586U 20070BG  22194.84847678 -.00003070  00000-0 -18731-3 0  9993","PERIOD":"95.592","DECAY_DATE":null,"CLASSIFICATION_TYPE":"U","RCS_SIZE":"LARGE","CENTER_NAME":"EARTH","RA_OF_ASC_NODE":"28.9572","MEAN_MOTION":"15.06402768","MEAN_MOTION_DDOT":"0.0000000000000","INCLINATION":"53.0539","NORAD_CAT_ID":"46586","FILE":"3513188","MEAN_MOTION_DOT":"-0.00003070","MEAN_ELEMENT_THEORY":"SGP4","TLE_LINE2":"2 46586  53.0539  28.9572 0001364  85.5782 274.5363 15.06402768 98598","REV_AT_EPOCH":"9859","OBJECT_ID":"2020-070BG","EPHEMERIS_TYPE":"0","BSTAR":"-0.00018731000000","EPOCH":"2022-07-13T20:21:48.393792","SEMIMAJOR_AXIS":"6925.340","OBJECT_TYPE":"PAYLOAD","MEAN_ANOMALY":"274.5363","COUNTRY_CODE":"US","ECCENTRICITY":"0.00013640","PERIAPSIS":"546.260"},{"APOAPSIS":"548.188","REF_FRAME":"TEME","SITE":"AFETR","ARG_OF_PERICENTER":"77.8406","TIME_SYSTEM":"UTC","ELEMENT_SET_NO":"999","LAUNCH_DATE":"2020-10-06","OBJECT_NAME":"STARLINK-1746","GP_ID":"208064961","CLASSIFICATION_TYPE":"U","DECAY_DATE":null,"TLE_LINE1":"1 46588U 20070BJ  22194.83004655 -.00003758  00000-0 -23348-3 0  9997","PERIOD":"95.592","CENTER_NAME":"EARTH","RCS_SIZE":"LARGE","RA_OF_ASC_NODE":"29.0437","INCLINATION":"53.0552","MEAN_MOTION_DDOT":"0.0000000000000","MEAN_MOTION":"15.06403344","REV_AT_EPOCH":"9859","OBJECT_ID":"2020-070BJ","EPHEMERIS_TYPE":"0","MEAN_ELEMENT_THEORY":"SGP4","TLE_LINE2":"2 46588  53.0552  29.0437 0001422  77.8406 282.2742 15.06403344 98597","NORAD_CAT_ID":"46588","FILE":"3513188","MEAN_MOTION_DOT":"-0.00003758","OBJECT_TYPE":"PAYLOAD","SEMIMAJOR_AXIS":"6925.338","EPOCH":"2022-07-13T19:55:16.021920","BSTAR":"-0.00023348000000","MEAN_ANOMALY":"282.2742","PERIAPSIS":"546.219","ECCENTRICITY":"0.00014220","COUNTRY_CODE":"US"},{"MEAN_MOTION":"15.06411848","MEAN_MOTION_DDOT":"0.0000000000000","INCLINATION":"53.0562","RA_OF_ASC_NODE":"29.0805","CENTER_NAME":"EARTH","RCS_SIZE":"LARGE","COUNTRY_CODE":"US","ECCENTRICITY":"0.00014900","PERIAPSIS":"546.145","MEAN_ANOMALY":"266.7275","BSTAR":"0.00002361000000","SEMIMAJOR_AXIS":"6925.312","EPOCH":"2022-07-13T19:44:39.418944","OBJECT_TYPE":"PAYLOAD","FILE":"3513188","MEAN_MOTION_DOT":"0.00000070","NORAD_CAT_ID":"46589","MEAN_ELEMENT_THEORY":"SGP4","TLE_LINE2":"2 46589  53.0562  29.0805 0001490  93.3885 266.7275 15.06411848 98582","OBJECT_ID":"2020-070BK","REV_AT_EPOCH":"9858","EPHEMERIS_TYPE":"0","REF_FRAME":"TEME","APOAPSIS":"548.209","DECAY_DATE":null,"TLE_LINE1":"1 46589U 20070BK  22194.82267846  .00000070  00000-0  23610-4 0  9995","PERIOD":"95.591","CLASSIFICATION_TYPE":"U","GP_ID":"208064456","OBJECT_NAME":"STARLINK-1749","ELEMENT_SET_NO":"999","LAUNCH_DATE":"2020-10-06","ARG_OF_PERICENTER":"93.3885","TIME_SYSTEM":"UTC","SITE":"AFETR"},{"GP_ID":"208066460","CLASSIFICATION_TYPE":"U","PERIOD":"95.592","TLE_LINE1":"1 46591U 20070BM  22194.81161881 -.00002126  00000-0 -12388-3 0  9994","DECAY_DATE":null,"SITE":"AFETR","TIME_SYSTEM":"UTC","ARG_OF_PERICENTER":"83.4637","OBJECT_NAME":"STARLINK-1755","LAUNCH_DATE":"2020-10-06","ELEMENT_SET_NO":"999","REF_FRAME":"TEME","APOAPSIS":"548.130","MEAN_ANOMALY":"276.6504","COUNTRY_CODE":"US","ECCENTRICITY":"0.00013300","PERIAPSIS":"546.288","MEAN_ELEMENT_THEORY":"SGP4","TLE_LINE2":"2 46591  53.0557  29.1212 0001330  83.4637 276.6504 15.06401353 97641","REV_AT_EPOCH":"9764","EPHEMERIS_TYPE":"0","OBJECT_ID":"2020-070BM","NORAD_CAT_ID":"46591","FILE":"3513188","MEAN_MOTION_DOT":"-0.00002126","OBJECT_TYPE":"PAYLOAD","BSTAR":"-0.00012388000000","SEMIMAJOR_AXIS":"6925.344","EPOCH":"2022-07-13T19:28:43.865184","RA_OF_ASC_NODE":"29.1212","INCLINATION":"53.0557","MEAN_MOTION":"15.06401353","MEAN_MOTION_DDOT":"0.0000000000000","RCS_SIZE":"LARGE","CENTER_NAME":"EARTH"},{"GP_ID":"208035622","PERIOD":"95.591","TLE_LINE1":"1 46671U 20073B   22194.50847412  .00001778  00000-0  13816-3 0  9990","DECAY_DATE":null,"CLASSIFICATION_TYPE":"U","ARG_OF_PERICENTER":"62.5426","TIME_SYSTEM":"UTC","SITE":"AFETR","ELEMENT_SET_NO":"999","LAUNCH_DATE":"2020-10-18","OBJECT_NAME":"STARLINK-1715","REF_FRAME":"TEME","APOAPSIS":"548.450","MEAN_ANOMALY":"297.5755","PERIAPSIS":"545.829","COUNTRY_CODE":"US","ECCENTRICITY":"0.00018920","FILE":"3512925","NORAD_CAT_ID":"46671","MEAN_MOTION_DOT":"0.00001778","OBJECT_ID":"2020-073B","REV_AT_EPOCH":"9581","EPHEMERIS_TYPE":"0","TLE_LINE2":"2 46671  53.0544 120.7250 0001892  62.5426 297.5755 15.06424175 95817","MEAN_ELEMENT_THEORY":"SGP4","SEMIMAJOR_AXIS":"6925.274","EPOCH":"2022-07-13T12:12:12.163968","BSTAR":"0.00013816000000","OBJECT_TYPE":"PAYLOAD","RA_OF_ASC_NODE":"120.7250","MEAN_MOTION_DDOT":"0.0000000000000","MEAN_MOTION":"15.06424175","INCLINATION":"53.0544","RCS_SIZE":"LARGE","CENTER_NAME":"EARTH"},{"PERIAPSIS":"546.039","COUNTRY_CODE":"US","ECCENTRICITY":"0.00016000","MEAN_ANOMALY":"303.5906","SEMIMAJOR_AXIS":"6925.282","EPOCH":"2022-07-13T04:39:00.417312","BSTAR":"0.00035778000000","OBJECT_TYPE":"PAYLOAD","FILE":"3512925","NORAD_CAT_ID":"46672","MEAN_MOTION_DOT":"0.00005055","OBJECT_ID":"2020-073C","REV_AT_EPOCH":"9584","EPHEMERIS_TYPE":"0","MEAN_ELEMENT_THEORY":"SGP4","TLE_LINE2":"2 46672  53.0564 116.8994 0001600  56.5235 303.5906 15.06421780 95847","MEAN_MOTION_DDOT":"0.0000000000000","MEAN_MOTION":"15.06421780","INCLINATION":"53.0564","RA_OF_ASC_NODE":"116.8994","CENTER_NAME":"EARTH","RCS_SIZE":"LARGE","TLE_LINE1":"1 46672U 20073C   22194.19375483  .00005055  00000-0  35778-3 0  9993","PERIOD":"95.591","DECAY_DATE":null,"CLASSIFICATION_TYPE":"U","GP_ID":"208035366","LAUNCH_DATE":"2020-10-18","ELEMENT_SET_NO":"999","OBJECT_NAME":"STARLINK-1716","ARG_OF_PERICENTER":"56.5235","TIME_SYSTEM":"UTC","SITE":"AFETR","REF_FRAME":"TEME","APOAPSIS":"548.255"},{"CENTER_NAME":"EARTH","RCS_SIZE":"LARGE","RA_OF_ASC_NODE":"131.5015","INCLINATION":"53.0540","MEAN_MOTION_DDOT":"0.0000000000000","MEAN_MOTION":"15.06405142","REV_AT_EPOCH":"9564","OBJECT_ID":"2020-073D","EPHEMERIS_TYPE":"0","MEAN_ELEMENT_THEORY":"SGP4","TLE_LINE2":"2 46673  53.0540 131.5015 0001836  69.4397 290.6789 15.06405142 95640","FILE":"3512925","MEAN_MOTION_DOT":"0.00001025","NORAD_CAT_ID":"46673","OBJECT_TYPE":"PAYLOAD","EPOCH":"2022-07-13T07:24:13.808160","SEMIMAJOR_AXIS":"6925.333","BSTAR":"0.00008767400000","MEAN_ANOMALY":"290.6789","PERIAPSIS":"545.926","COUNTRY_CODE":"US","ECCENTRICITY":"0.00018360","APOAPSIS":"548.469","REF_FRAME":"TEME","SITE":"AFETR","TIME_SYSTEM":"UTC","ARG_OF_PERICENTER":"69.4397","ELEMENT_SET_NO":"999","LAUNCH_DATE":"2020-10-18","OBJECT_NAME":"STARLINK-1717","GP_ID":"208034121","CLASSIFICATION_TYPE":"U","PERIOD":"95.592","TLE_LINE1":"1 46673U 20073D   22194.30849315  .00001025  00000-0  87674-4 0  9993","DECAY_DATE":null}];
